[{"OBJECT_NAME":"SWARM B","OBJECT_ID":"2013-067A","EPOCH":"2026-03-09T22:20:48.706656","MEAN_MOTION":15.27862638,"ECCENTRICITY":0.00036996,"INCLINATION":87.749,"RA_OF_ASC_NODE":12.4162,"ARG_OF_PERICENTER":86.3179,"MEAN_ANOMALY":273.8493,"EPHEMERIS_TYPE":0,"CLASSIFICATION_TYPE":"U","NORAD_CAT_ID":39451,"ELEMENT_SET_NO":999,"REV_AT_EPOCH":66808,"BSTAR":0.00020534236,"MEAN_MOTION_DOT":5.616e-5,"MEAN_MOTION_DDOT":0},{"OBJECT_NAME":"OBJECT G","OBJECT_ID":"2026-023G","EPOCH":"2026-03-09T17:12:13.064832","MEAN_MOTION":15.23234695,"ECCENTRICITY":0.00237819,"INCLINATION":96.6246,"RA_OF_ASC_NODE":144.1318,"ARG_OF_PERICENTER":118.2502,"MEAN_ANOMALY":242.1141,"EPHEMERIS_TYPE":0,"CLASSIFICATION_TYPE":"U","NORAD_CAT_ID":67680,"ELEMENT_SET_NO":999,"REV_AT_EPOCH":484,"BSTAR":0.00060026958,"MEAN_MOTION_DOT":0.00014279,"MEAN_MOTION_DDOT":0}]
